[
    {
        "Altitude(m)": 610399.5148664835,
        "Argument of Periapsis(deg)": 0.0,
        "Eccentricity": 0.0,
        "Inclination(deg)": 60.0,
        "Latitude(deg)": 52.11129639970598,
        "Longitude(deg)": -32.415812992479644,
        "Mean Anomaly(deg)": 65.4545,
        "RAAN(deg)": 20.0,
        "Satellite Name": "Test1 92",
        "Satellite Number": 92,
        "Semi-Major Axis(m)": 6980739.136638005,
        "Time(s)": 0
    },
    {
        "Altitude(m)": 610481.666457234,
        "Argument of Periapsis(deg)": 0.00010418945913296404,
        "Eccentricity": 0.0,
        "Inclination(deg)": 60.0,
        "Latitude(deg)": 52.470899927749976,
        "Longitude(deg)": -31.633678994276043,
        "Mean Anomaly(deg)": 66.07460614546183,
        "RAAN(deg)": 19.99957995086026,
        "Satellite Name": "Test1 92",
        "Satellite Number": 92,
        "Semi-Major Axis(m)": 6980739.136638005,
        "Time(s)": 10
    }
]